[
    {
        "Altitude(m)": 604234.5995266809,
        "Argument of Periapsis(deg)": 0.0,
        "Eccentricity": 0.0,
        "Inclination(deg)": 60.0,
        "Latitude(deg)": 14.117180430673995,
        "Longitude(deg)": -18.27269447573721,
        "Mean Anomaly(deg)": -196.36359999999996,
        "RAAN(deg)": 270.0,
        "Satellite Name": "Test1 1198",
        "Satellite Number": 1198,
        "Semi-Major Axis(m)": 6980739.136638005,
        "Time(s)": 0
    },
    {
        "Altitude(m)": 604223.4285092406,
        "Argument of Periapsis(deg)": 0.00010418945913296404,
        "Eccentricity": 0.0,
        "Inclination(deg)": 60.0,
        "Latitude(deg)": 13.582317236370047,
        "Longitude(deg)": -17.98578450685993,
        "Mean Anomaly(deg)": -195.74349385453812,
        "RAAN(deg)": 269.99957995086027,
        "Satellite Name": "Test1 1198",
        "Satellite Number": 1198,
        "Semi-Major Axis(m)": 6980739.136638005,
        "Time(s)": 10
    }
]